0 FENGYUN 1C DEB
1 31267U 99025BMZ 13281.84425816  .00002259  00000-0  64413-3 0  2494
2 31267 099.3300 141.3745 0138339 071.7374 290.0647 14.40888781346466
0 FENGYUN 1C DEB
1 31267U 99025BMZ 13283.85798681  .00002338  00000-0  66275-3 0  2508
2 31267 099.3382 143.6091 0141336 065.3530 296.2293 14.40899599346755
0 FENGYUN 1C DEB
1 31267U 99025BMZ 13285.80229279  .00002391  00000-0  67614-3 0  2515
2 31267 099.3254 145.6802 0142307 060.0050 301.5785 14.40911308347034
0 FENGYUN 1C DEB
1 31267U 99025BMZ 13293.85708886  .00003060  00000-0  86069-3 0  2525
2 31267 099.3255 154.4686 0141790 035.7049 325.9468 14.40973060348194
